[{"OBJECT_NAME":"ONEWEB-0188","OBJECT_ID":"2021-031X","EPOCH":"2025-09-06T06:57:16.927200","MEAN_MOTION":13.14502601,"ECCENTRICITY":0.00018659,"INCLINATION":87.9091,"RA_OF_ASC_NODE":346.2632,"ARG_OF_PERICENTER":101.177,"MEAN_ANOMALY":258.9569,"EPHEMERIS_TYPE":0,"CLASSIFICATION_TYPE":"U","NORAD_CAT_ID":48231,"ELEMENT_SET_NO":999,"REV_AT_EPOCH":21084,"BSTAR":-0.00039550843,"MEAN_MOTION_DOT":-1.34e-6,"MEAN_MOTION_DDOT":0},{"OBJECT_NAME":"ONEWEB-0220","OBJECT_ID":"2021-031Y","EPOCH":"2025-09-06T06:04:46.122240","MEAN_MOTION":13.14502542,"ECCENTRICITY":0.00019683,"INCLINATION":87.9092,"RA_OF_ASC_NODE":346.2091,"ARG_OF_PERICENTER":106.5193,"MEAN_ANOMALY":253.6153,"EPHEMERIS_TYPE":0,"CLASSIFICATION_TYPE":"U","NORAD_CAT_ID":48232,"ELEMENT_SET_NO":999,"REV_AT_EPOCH":21110,"BSTAR":0.00063699833,"MEAN_MOTION_DOT":2.49e-6,"MEAN_MOTION_DDOT":0},{"OBJECT_NAME":"ONEWEB-0165","OBJECT_ID":"2021-031Z","EPOCH":"2025-09-06T06:45:51.093504","MEAN_MOTION":13.1450117,"ECCENTRICITY":0.00018103,"INCLINATION":87.9076,"RA_OF_ASC_NODE":346.245,"ARG_OF_PERICENTER":106.5743,"MEAN_ANOMALY":253.5585,"EPHEMERIS_TYPE":0,"CLASSIFICATION_TYPE":"U","NORAD_CAT_ID":48233,"ELEMENT_SET_NO":999,"REV_AT_EPOCH":21106,"BSTAR":3.0085449e-5,"MEAN_MOTION_DOT":2.4e-7,"MEAN_MOTION_DDOT":0},{"OBJECT_NAME":"ONEWEB-0199","OBJECT_ID":"2021-031AA","EPOCH":"2025-09-06T06:23:02.302368","MEAN_MOTION":13.14503159,"ECCENTRICITY":0.00017638,"INCLINATION":87.9087,"RA_OF_ASC_NODE":346.2136,"ARG_OF_PERICENTER":94.812,"MEAN_ANOMALY":265.3211,"EPHEMERIS_TYPE":0,"CLASSIFICATION_TYPE":"U","NORAD_CAT_ID":48234,"ELEMENT_SET_NO":999,"REV_AT_EPOCH":21096,"BSTAR":0.00069811604,"MEAN_MOTION_DOT":2.72e-6,"MEAN_MOTION_DDOT":0},{"OBJECT_NAME":"ONEWEB-0203","OBJECT_ID":"2021-031AB","EPOCH":"2025-09-06T06:09:19.503072","MEAN_MOTION":13.14504452,"ECCENTRICITY":0.0001526,"INCLINATION":87.9086,"RA_OF_ASC_NODE":346.2169,"ARG_OF_PERICENTER":97.8491,"MEAN_ANOMALY":262.2812,"EPHEMERIS_TYPE":0,"CLASSIFICATION_TYPE":"U","NORAD_CAT_ID":48235,"ELEMENT_SET_NO":999,"REV_AT_EPOCH":21097,"BSTAR":0.00073543323,"MEAN_MOTION_DOT":2.85e-6,"MEAN_MOTION_DDOT":0},{"OBJECT_NAME":"ONEWEB-0197","OBJECT_ID":"2021-031AC","EPOCH":"2025-09-06T05:32:36.694464","MEAN_MOTION":13.14500313,"ECCENTRICITY":0.00021566,"INCLINATION":87.9086,"RA_OF_ASC_NODE":346.2204,"ARG_OF_PERICENTER":99.4687,"MEAN_ANOMALY":260.6687,"EPHEMERIS_TYPE":0,"CLASSIFICATION_TYPE":"U","NORAD_CAT_ID":48236,"ELEMENT_SET_NO":999,"REV_AT_EPOCH":21088,"BSTAR":-0.00038335373,"MEAN_MOTION_DOT":-1.29e-6,"MEAN_MOTION_DDOT":0},{"OBJECT_NAME":"ONEWEB-0194","OBJECT_ID":"2021-031AD","EPOCH":"2025-09-06T06:52:43.077216","MEAN_MOTION":13.14503094,"ECCENTRICITY":0.00017089,"INCLINATION":87.9091,"RA_OF_ASC_NODE":346.2227,"ARG_OF_PERICENTER":92.5745,"MEAN_ANOMALY":267.558,"EPHEMERIS_TYPE":0,"CLASSIFICATION_TYPE":"U","NORAD_CAT_ID":48237,"ELEMENT_SET_NO":999,"REV_AT_EPOCH":21106,"BSTAR":-0.00017727668,"MEAN_MOTION_DOT":-5.3e-7,"MEAN_MOTION_DDOT":0},{"OBJECT_NAME":"ONEWEB-0193","OBJECT_ID":"2021-031AE","EPOCH":"2025-09-06T05:25:57.352800","MEAN_MOTION":13.14503014,"ECCENTRICITY":0.00017312,"INCLINATION":87.9076,"RA_OF_ASC_NODE":346.2375,"ARG_OF_PERICENTER":85.7153,"MEAN_ANOMALY":274.4174,"EPHEMERIS_TYPE":0,"CLASSIFICATION_TYPE":"U","NORAD_CAT_ID":48238,"ELEMENT_SET_NO":999,"REV_AT_EPOCH":21100,"BSTAR":-0.00048534528,"MEAN_MOTION_DOT":-1.67e-6,"MEAN_MOTION_DDOT":0},{"OBJECT_NAME":"ONEWEB-0191","OBJECT_ID":"2021-031AF","EPOCH":"2025-09-06T05:41:55.977216","MEAN_MOTION":13.14503913,"ECCENTRICITY":0.00018525,"INCLINATION":87.9097,"RA_OF_ASC_NODE":346.2112,"ARG_OF_PERICENTER":98.0438,"MEAN_ANOMALY":262.0902,"EPHEMERIS_TYPE":0,"CLASSIFICATION_TYPE":"U","NORAD_CAT_ID":48239,"ELEMENT_SET_NO":999,"REV_AT_EPOCH":21086,"BSTAR":-0.00024968624,"MEAN_MOTION_DOT":-8.0e-7,"MEAN_MOTION_DDOT":0},{"OBJECT_NAME":"ONEWEB-0195","OBJECT_ID":"2021-031AG","EPOCH":"2025-09-06T06:58:24.521376","MEAN_MOTION":13.14503661,"ECCENTRICITY":0.00016358,"INCLINATION":87.9095,"RA_OF_ASC_NODE":346.1977,"ARG_OF_PERICENTER":112.5451,"MEAN_ANOMALY":247.5852,"EPHEMERIS_TYPE":0,"CLASSIFICATION_TYPE":"U","NORAD_CAT_ID":48240,"ELEMENT_SET_NO":999,"REV_AT_EPOCH":21085,"BSTAR":-0.00033125182,"MEAN_MOTION_DOT":-1.1e-6,"MEAN_MOTION_DDOT":0},{"OBJECT_NAME":"ONEWEB-0201","OBJECT_ID":"2021-031AH","EPOCH":"2025-09-06T06:41:29.307552","MEAN_MOTION":13.1450386,"ECCENTRICITY":0.00020232,"INCLINATION":87.9099,"RA_OF_ASC_NODE":346.2494,"ARG_OF_PERICENTER":107.7512,"MEAN_ANOMALY":252.3839,"EPHEMERIS_TYPE":0,"CLASSIFICATION_TYPE":"U","NORAD_CAT_ID":48241,"ELEMENT_SET_NO":999,"REV_AT_EPOCH":21108,"BSTAR":0.00017672417,"MEAN_MOTION_DOT":7.8e-7,"MEAN_MOTION_DDOT":0},{"OBJECT_NAME":"ONEWEB-0207","OBJECT_ID":"2021-031AJ","EPOCH":"2025-09-06T06:12:44.773056","MEAN_MOTION":13.14502497,"ECCENTRICITY":0.00020099,"INCLINATION":87.9088,"RA_OF_ASC_NODE":346.212,"ARG_OF_PERICENTER":102.7952,"MEAN_ANOMALY":257.3403,"EPHEMERIS_TYPE":0,"CLASSIFICATION_TYPE":"U","NORAD_CAT_ID":48242,"ELEMENT_SET_NO":999,"REV_AT_EPOCH":21099,"BSTAR":0.00077343717,"MEAN_MOTION_DOT":3.0e-6,"MEAN_MOTION_DDOT":0},{"OBJECT_NAME":"ONEWEB-0208","OBJECT_ID":"2021-031AK","EPOCH":"2025-09-06T05:46:29.602560","MEAN_MOTION":13.14503346,"ECCENTRICITY":0.00017165,"INCLINATION":87.9094,"RA_OF_ASC_NODE":346.2303,"ARG_OF_PERICENTER":105.4342,"MEAN_ANOMALY":254.6978,"EPHEMERIS_TYPE":0,"CLASSIFICATION_TYPE":"U","NORAD_CAT_ID":48243,"ELEMENT_SET_NO":999,"REV_AT_EPOCH":21100,"BSTAR":-0.00011624094,"MEAN_MOTION_DOT":-3.0e-7,"MEAN_MOTION_DDOT":0},{"OBJECT_NAME":"ONEWEB-0200","OBJECT_ID":"2021-031AL","EPOCH":"2025-09-06T06:43:35.467968","MEAN_MOTION":13.14502816,"ECCENTRICITY":0.00017791,"INCLINATION":87.9087,"RA_OF_ASC_NODE":346.2127,"ARG_OF_PERICENTER":103.2156,"MEAN_ANOMALY":256.9172,"EPHEMERIS_TYPE":0,"CLASSIFICATION_TYPE":"U","NORAD_CAT_ID":48244,"ELEMENT_SET_NO":999,"REV_AT_EPOCH":21093,"BSTAR":-1.644342e-5,"MEAN_MOTION_DOT":7.0e-8,"MEAN_MOTION_DDOT":0},{"OBJECT_NAME":"ONEWEB-0217","OBJECT_ID":"2021-031AM","EPOCH":"2025-09-06T07:06:23.792544","MEAN_MOTION":13.14502757,"ECCENTRICITY":0.0001619,"INCLINATION":87.9096,"RA_OF_ASC_NODE":346.1956,"ARG_OF_PERICENTER":108.4663,"MEAN_ANOMALY":251.6643,"EPHEMERIS_TYPE":0,"CLASSIFICATION_TYPE":"U","NORAD_CAT_ID":48245,"ELEMENT_SET_NO":999,"REV_AT_EPOCH":21088,"BSTAR":-0.00053810619,"MEAN_MOTION_DOT":-1.87e-6,"MEAN_MOTION_DDOT":0},{"OBJECT_NAME":"ONEWEB-0211","OBJECT_ID":"2021-045A","EPOCH":"2025-09-06T05:54:21.400992","MEAN_MOTION":13.1608478,"ECCENTRICITY":0.00015501,"INCLINATION":87.9053,"RA_OF_ASC_NODE":315.7855,"ARG_OF_PERICENTER":95.632,"MEAN_ANOMALY":264.4987,"EPHEMERIS_TYPE":0,"CLASSIFICATION_TYPE":"U","NORAD_CAT_ID":48767,"ELEMENT_SET_NO":999,"REV_AT_EPOCH":20709,"BSTAR":0.00061156396,"MEAN_MOTION_DOT":2.45e-6,"MEAN_MOTION_DDOT":0}]
