ONEWEB-0188             
1 48231U 21031X   25249.28977925 -.00000134  00000+0 -39551-3 0  9991
2 48231  87.9091 346.2632 0001865 101.1770 258.9569 13.14502601210849
ONEWEB-0220             
1 48232U 21031Y   25249.25331160  .00000249  00000+0  63700-3 0  9992
2 48232  87.9092 346.2091 0001968 106.5193 253.6153 13.14502542211107
ONEWEB-0165             
1 48233U 21031Z   25249.28184136  .00000024  00000+0  30085-4 0  9997
2 48233  87.9076 346.2450 0001810 106.5743 253.5585 13.14501170211065
ONEWEB-0199             
1 48234U 21031AA  25249.26599887  .00000272  00000+0  69812-3 0  9993
2 48234  87.9087 346.2136 0001763  94.8120 265.3211 13.14503159210968
ONEWEB-0203             
1 48235U 21031AB  25249.25647573  .00000285  00000+0  73543-3 0  9999
2 48235  87.9086 346.2169 0001526  97.8491 262.2812 13.14504452210976
ONEWEB-0197             
1 48236U 21031AC  25249.23098026 -.00000129  00000+0 -38335-3 0  9990
2 48236  87.9086 346.2204 0002156  99.4687 260.6687 13.14500313210886
ONEWEB-0194             
1 48237U 21031AD  25249.28660969 -.00000053  00000+0 -17728-3 0  9996
2 48237  87.9091 346.2227 0001708  92.5745 267.5580 13.14503094211067
ONEWEB-0193             
1 48238U 21031AE  25249.22635825 -.00000167  00000+0 -48535-3 0  9990
2 48238  87.9076 346.2375 0001731  85.7153 274.4174 13.14503014211000
ONEWEB-0191             
1 48239U 21031AF  25249.23745344 -.00000080  00000+0 -24969-3 0  9999
2 48239  87.9097 346.2112 0001852  98.0438 262.0902 13.14503913210863
ONEWEB-0195             
1 48240U 21031AG  25249.29056159 -.00000110  00000+0 -33125-3 0  9994
2 48240  87.9095 346.1977 0001635 112.5451 247.5852 13.14503661210858
ONEWEB-0201             
1 48241U 21031AH  25249.27881143  .00000078  00000+0  17672-3 0  9992
2 48241  87.9099 346.2494 0002023 107.7512 252.3839 13.14503860211080
ONEWEB-0207             
1 48242U 21031AJ  25249.25885154  .00000300  00000+0  77344-3 0  9997
2 48242  87.9088 346.2120 0002009 102.7952 257.3403 13.14502497210998
ONEWEB-0208             
1 48243U 21031AK  25249.24062040 -.00000030  00000+0 -11624-3 0  9999
2 48243  87.9094 346.2303 0001716 105.4342 254.6978 13.14503346211000
ONEWEB-0200             
1 48244U 21031AL  25249.28027162  .00000007  00000+0 -16443-4 0  9998
2 48244  87.9087 346.2127 0001779 103.2156 256.9172 13.14502816210938
ONEWEB-0217             
1 48245U 21031AM  25249.29610871 -.00000187  00000+0 -53811-3 0  9994
2 48245  87.9096 346.1956 0001619 108.4663 251.6643 13.14502757210884
ONEWEB-0211             
1 48767U 21045A   25249.24608103  .00000245  00000+0  61156-3 0  9992
2 48767  87.9053 315.7855 0001550  95.6320 264.4987 13.16084780207092
